CCSDS_OMM_VERS = 2.0
CREATION_DATE  = 
ORIGINATOR     = 

OBJECT_NAME    = STARLINK-36550
OBJECT_ID      = 2026-012C
CENTER_NAME    = EARTH
REF_FRAME      = TEME
TIME_SYSTEM    = UTC
MEAN_ELEMENT_THEORY = SGP/SGP4

EPOCH          = 2026-01-31T04:00:01.999584
MEAN_MOTION    = 15.90248899
ECCENTRICITY   = .0001505
INCLINATION    = 42.9961
RA_OF_ASC_NODE = 171.5613
ARG_OF_PERICENTER = 270.8610
MEAN_ANOMALY   = 77.8080

EPHEMERIS_TYPE = 0
CLASSIFICATION_TYPE = U
NORAD_CAT_ID   = 67495
ELEMENT_SET_NO = 999
REV_AT_EPOCH   = 303
BSTAR          = -.57263E-2
MEAN_MOTION_DOT = -.1586839E-1
MEAN_MOTION_DDOT = 0

CCSDS_OMM_VERS = 2.0
CREATION_DATE  = 
ORIGINATOR     = 

OBJECT_NAME    = STARLINK-36534
OBJECT_ID      = 2026-012D
CENTER_NAME    = EARTH
REF_FRAME      = TEME
TIME_SYSTEM    = UTC
MEAN_ELEMENT_THEORY = SGP/SGP4

EPOCH          = 2026-01-31T04:00:01.999584
MEAN_MOTION    = 15.90450861
ECCENTRICITY   = .0001542
INCLINATION    = 42.9965
RA_OF_ASC_NODE = 171.5448
ARG_OF_PERICENTER = 272.3127
MEAN_ANOMALY   = 82.8454

EPHEMERIS_TYPE = 0
CLASSIFICATION_TYPE = U
NORAD_CAT_ID   = 67496
ELEMENT_SET_NO = 999
REV_AT_EPOCH   = 297
BSTAR          = -.56838E-2
MEAN_MOTION_DOT = -.1591073E-1
MEAN_MOTION_DDOT = 0

CCSDS_OMM_VERS = 2.0
CREATION_DATE  = 
ORIGINATOR     = 

OBJECT_NAME    = STARLINK-36555
OBJECT_ID      = 2026-012E
CENTER_NAME    = EARTH
REF_FRAME      = TEME
TIME_SYSTEM    = UTC
MEAN_ELEMENT_THEORY = SGP/SGP4

EPOCH          = 2026-01-31T04:00:01.999584
MEAN_MOTION    = 15.90327502
ECCENTRICITY   = .0001765
INCLINATION    = 42.9964
RA_OF_ASC_NODE = 171.5540
ARG_OF_PERICENTER = 272.0203
MEAN_ANOMALY   = 79.5459

EPHEMERIS_TYPE = 0
CLASSIFICATION_TYPE = U
NORAD_CAT_ID   = 67497
ELEMENT_SET_NO = 999
REV_AT_EPOCH   = 303
BSTAR          = -.56498E-2
MEAN_MOTION_DOT = -.1574052E-1
MEAN_MOTION_DDOT = 0

CCSDS_OMM_VERS = 2.0
CREATION_DATE  = 
ORIGINATOR     = 

OBJECT_NAME    = STARLINK-36081
OBJECT_ID      = 2026-012F
CENTER_NAME    = EARTH
REF_FRAME      = TEME
TIME_SYSTEM    = UTC
MEAN_ELEMENT_THEORY = SGP/SGP4

EPOCH          = 2026-01-31T04:00:01.999584
MEAN_MOTION    = 15.90583730
ECCENTRICITY   = .0001712
INCLINATION    = 42.9965
RA_OF_ASC_NODE = 171.5336
ARG_OF_PERICENTER = 275.7788
MEAN_ANOMALY   = 83.8583

EPHEMERIS_TYPE = 0
CLASSIFICATION_TYPE = U
NORAD_CAT_ID   = 67498
ELEMENT_SET_NO = 999
REV_AT_EPOCH   = 297
BSTAR          = -.55965E-2
MEAN_MOTION_DOT = -.1579297E-1
MEAN_MOTION_DDOT = 0

CCSDS_OMM_VERS = 2.0
CREATION_DATE  = 
ORIGINATOR     = 

OBJECT_NAME    = STARLINK-36558
OBJECT_ID      = 2026-012G
CENTER_NAME    = EARTH
REF_FRAME      = TEME
TIME_SYSTEM    = UTC
MEAN_ELEMENT_THEORY = SGP/SGP4

EPOCH          = 2026-01-31T04:00:01.999584
MEAN_MOTION    = 15.90648565
ECCENTRICITY   = .0001608
INCLINATION    = 42.9964
RA_OF_ASC_NODE = 171.5280
ARG_OF_PERICENTER = 271.9168
MEAN_ANOMALY   = 90.0208

EPHEMERIS_TYPE = 0
CLASSIFICATION_TYPE = U
NORAD_CAT_ID   = 67499
ELEMENT_SET_NO = 999
REV_AT_EPOCH   = 303
BSTAR          = -.55658E-2
MEAN_MOTION_DOT = -.154275E-1
MEAN_MOTION_DDOT = 0

CCSDS_OMM_VERS = 2.0
CREATION_DATE  = 
ORIGINATOR     = 

OBJECT_NAME    = STARLINK-36557
OBJECT_ID      = 2026-012H
CENTER_NAME    = EARTH
REF_FRAME      = TEME
TIME_SYSTEM    = UTC
MEAN_ELEMENT_THEORY = SGP/SGP4

EPOCH          = 2026-01-31T04:00:01.999584
MEAN_MOTION    = 15.90765022
ECCENTRICITY   = .0001529
INCLINATION    = 42.9965
RA_OF_ASC_NODE = 171.5174
ARG_OF_PERICENTER = 273.6963
MEAN_ANOMALY   = 91.9803

EPHEMERIS_TYPE = 0
CLASSIFICATION_TYPE = U
NORAD_CAT_ID   = 67500
ELEMENT_SET_NO = 999
REV_AT_EPOCH   = 303
BSTAR          = -.55277E-2
MEAN_MOTION_DOT = -.1541624E-1
MEAN_MOTION_DDOT = 0

CCSDS_OMM_VERS = 2.0
CREATION_DATE  = 
ORIGINATOR     = 

OBJECT_NAME    = STARLINK-36433
OBJECT_ID      = 2026-012J
CENTER_NAME    = EARTH
REF_FRAME      = TEME
TIME_SYSTEM    = UTC
MEAN_ELEMENT_THEORY = SGP/SGP4

EPOCH          = 2026-01-31T04:00:01.999584
MEAN_MOTION    = 15.90866832
ECCENTRICITY   = .0001672
INCLINATION    = 42.9964
RA_OF_ASC_NODE = 171.5101
ARG_OF_PERICENTER = 272.6829
MEAN_ANOMALY   = 96.2521

EPHEMERIS_TYPE = 0
CLASSIFICATION_TYPE = U
NORAD_CAT_ID   = 67501
ELEMENT_SET_NO = 999
REV_AT_EPOCH   = 303
BSTAR          = -.5507E-2
MEAN_MOTION_DOT = -.154382E-1
MEAN_MOTION_DDOT = 0

CCSDS_OMM_VERS = 2.0
CREATION_DATE  = 
ORIGINATOR     = 

OBJECT_NAME    = STARLINK-36554
OBJECT_ID      = 2026-012K
CENTER_NAME    = EARTH
REF_FRAME      = TEME
TIME_SYSTEM    = UTC
MEAN_ELEMENT_THEORY = SGP/SGP4

EPOCH          = 2026-01-28T18:49:29.593920
MEAN_MOTION    = 16.00907404
ECCENTRICITY   = .00123264
INCLINATION    = 42.9964
RA_OF_ASC_NODE = 186.3737
ARG_OF_PERICENTER = 300.6114
MEAN_ANOMALY   = 59.3549

EPHEMERIS_TYPE = 0
CLASSIFICATION_TYPE = U
NORAD_CAT_ID   = 67502
ELEMENT_SET_NO = 999
REV_AT_EPOCH   = 158
BSTAR          = .15774164E-2
MEAN_MOTION_DOT = .888078E-2
MEAN_MOTION_DDOT = .38383813E-3

CCSDS_OMM_VERS = 2.0
CREATION_DATE  = 
ORIGINATOR     = 

OBJECT_NAME    = STARLINK-36552
OBJECT_ID      = 2026-012L
CENTER_NAME    = EARTH
REF_FRAME      = TEME
TIME_SYSTEM    = UTC
MEAN_ELEMENT_THEORY = SGP/SGP4

EPOCH          = 2026-01-31T04:00:01.999584
MEAN_MOTION    = 15.91081987
ECCENTRICITY   = .0001614
INCLINATION    = 42.9965
RA_OF_ASC_NODE = 171.4927
ARG_OF_PERICENTER = 275.3799
MEAN_ANOMALY   = 100.3752

EPHEMERIS_TYPE = 0
CLASSIFICATION_TYPE = U
NORAD_CAT_ID   = 67503
ELEMENT_SET_NO = 999
REV_AT_EPOCH   = 303
BSTAR          = -.54371E-2
MEAN_MOTION_DOT = -.1541771E-1
MEAN_MOTION_DDOT = 0

CCSDS_OMM_VERS = 2.0
CREATION_DATE  = 
ORIGINATOR     = 

OBJECT_NAME    = STARLINK-36512
OBJECT_ID      = 2026-012M
CENTER_NAME    = EARTH
REF_FRAME      = TEME
TIME_SYSTEM    = UTC
MEAN_ELEMENT_THEORY = SGP/SGP4

EPOCH          = 2026-01-31T04:00:01.999584
MEAN_MOTION    = 15.91205084
ECCENTRICITY   = .0001654
INCLINATION    = 42.9963
RA_OF_ASC_NODE = 171.4821
ARG_OF_PERICENTER = 272.4764
MEAN_ANOMALY   = 107.3646

EPHEMERIS_TYPE = 0
CLASSIFICATION_TYPE = U
NORAD_CAT_ID   = 67504
ELEMENT_SET_NO = 999
REV_AT_EPOCH   = 303
BSTAR          = -.53661E-2
MEAN_MOTION_DOT = -.1762176E-1
MEAN_MOTION_DDOT = .84715E-3

CCSDS_OMM_VERS = 2.0
CREATION_DATE  = 
ORIGINATOR     = 

OBJECT_NAME    = STARLINK-36545
OBJECT_ID      = 2026-012N
CENTER_NAME    = EARTH
REF_FRAME      = TEME
TIME_SYSTEM    = UTC
MEAN_ELEMENT_THEORY = SGP/SGP4

EPOCH          = 2026-01-31T04:00:01.999584
MEAN_MOTION    = 15.91275625
ECCENTRICITY   = .0001574
INCLINATION    = 42.9964
RA_OF_ASC_NODE = 171.4759
ARG_OF_PERICENTER = 271.8734
MEAN_ANOMALY   = 110.3551

EPHEMERIS_TYPE = 0
CLASSIFICATION_TYPE = U
NORAD_CAT_ID   = 67505
ELEMENT_SET_NO = 999
REV_AT_EPOCH   = 303
BSTAR          = -.53438E-2
MEAN_MOTION_DOT = -.1761256E-1
MEAN_MOTION_DDOT = .84691E-3

CCSDS_OMM_VERS = 2.0
CREATION_DATE  = 
ORIGINATOR     = 

OBJECT_NAME    = STARLINK-36553
OBJECT_ID      = 2026-012P
CENTER_NAME    = EARTH
REF_FRAME      = TEME
TIME_SYSTEM    = UTC
MEAN_ELEMENT_THEORY = SGP/SGP4

EPOCH          = 2026-01-31T04:00:01.999584
MEAN_MOTION    = 15.91377310
ECCENTRICITY   = .0001527
INCLINATION    = 42.9967
RA_OF_ASC_NODE = 171.4683
ARG_OF_PERICENTER = 276.0181
MEAN_ANOMALY   = 109.5175

EPHEMERIS_TYPE = 0
CLASSIFICATION_TYPE = U
NORAD_CAT_ID   = 67506
ELEMENT_SET_NO = 999
REV_AT_EPOCH   = 303
BSTAR          = -.52907E-2
MEAN_MOTION_DOT = -.1753031E-1
MEAN_MOTION_DDOT = .84044E-3

