STARLINK-36550          
1 67495U 26012C   26031.16668981 -.01586839  00000+0 -57263-2 0  9995
2 67495  42.9961 171.5613 0001505 270.8610  77.8080 15.90248899  3034
STARLINK-36534          
1 67496U 26012D   26031.16668981 -.01591073  00000+0 -56838-2 0  9999
2 67496  42.9965 171.5448 0001542 272.3127  82.8454 15.90450861  2973
STARLINK-36555          
1 67497U 26012E   26031.16668981 -.01574052  00000+0 -56498-2 0  9990
2 67497  42.9964 171.5540 0001765 272.0203  79.5459 15.90327502  3036
STARLINK-36081          
1 67498U 26012F   26031.16668981 -.01579297  00000+0 -55965-2 0  9995
2 67498  42.9965 171.5336 0001712 275.7788  83.8583 15.90583730  2976
STARLINK-36558          
1 67499U 26012G   26031.16668981 -.01542750  00000+0 -55658-2 0  9999
2 67499  42.9964 171.5280 0001608 271.9168  90.0208 15.90648565  3038
STARLINK-36557          
1 67500U 26012H   26031.16668981 -.01541624  00000+0 -55277-2 0  9998
2 67500  42.9965 171.5174 0001529 273.6963  91.9803 15.90765022  3037
STARLINK-36433          
1 67501U 26012J   26031.16668981 -.01543820  00000+0 -55070-2 0  9990
2 67501  42.9964 171.5101 0001672 272.6829  96.2521 15.90866832  3032
STARLINK-36554          
1 67502U 26012K   26028.78437030  .00888078  38384-3  15774-2 0  9995
2 67502  42.9964 186.3737 0012326 300.6114  59.3549 16.00907404  1580
STARLINK-36552          
1 67503U 26012L   26031.16668981 -.01541771  00000+0 -54371-2 0  9998
2 67503  42.9965 171.4927 0001614 275.3799 100.3752 15.91081987  3036
STARLINK-36512          
1 67504U 26012M   26031.16668981 -.01762176  84715-3 -53661-2 0  9993
2 67504  42.9963 171.4821 0001654 272.4764 107.3646 15.91205084  3037
STARLINK-36545          
1 67505U 26012N   26031.16668981 -.01761256  84691-3 -53438-2 0  9997
2 67505  42.9964 171.4759 0001574 271.8734 110.3551 15.91275625  3037
STARLINK-36553          
1 67506U 26012P   26031.16668981 -.01753031  84044-3 -52907-2 0  9992
2 67506  42.9967 171.4683 0001527 276.0181 109.5175 15.91377310  3034
